{
  "norad_id": 58211,
  "name": "STARLINK-30838",
  "history": [
    {
      "epoch": "2026-03-28T11:15:36.321696",
      "apogee_km": 484.05428686049436,
      "perigee_km": 482.03023897793446,
      "latitude_deg": 3.245458455125333,
      "longitude_deg": 46.14035744010471,
      "semi_major_axis_km": 6861.179262919214,
      "eccentricity": 0.0001475,
      "inclination_deg": 43.0022,
      "raan_deg": 87.9893,
      "arg_perigee_deg": 266.3674,
      "mean_anomaly_deg": 93.7009,
      "mean_motion_rev_day": 15.27582282
    }
  ]
}